COMSATBW-1              
1 35943U 09054B   24128.79124920  .00000023  00000+0  00000+0 0  9996
2 35943   0.0635  89.0515 0002713 320.6602 164.2822  1.00273507 53570
